<?xml version="1.0" encoding="UTF-8"?>
<ndm xmlns:xsi="http://www.w3.org/2001/XMLSchema-instance" xsi:noNamespaceSchemaLocation="https://sanaregistry.org/r/ndmxml_unqualified/ndmxml-2.0.0-master-2.0.xsd">
<omm id="CCSDS_OMM_VERS" version="2.0">
<header><CREATION_DATE/><ORIGINATOR/></header><body><segment><metadata><OBJECT_NAME>KUIPER-00044</OBJECT_NAME><OBJECT_ID>2025-134F</OBJECT_ID><CENTER_NAME>EARTH</CENTER_NAME><REF_FRAME>TEME</REF_FRAME><TIME_SYSTEM>UTC</TIME_SYSTEM><MEAN_ELEMENT_THEORY>SGP4</MEAN_ELEMENT_THEORY></metadata><data><meanElements><EPOCH>2025-08-02T04:41:03.836256</EPOCH><MEAN_MOTION>15.15467785</MEAN_MOTION><ECCENTRICITY>.0011482</ECCENTRICITY><INCLINATION>51.8735</INCLINATION><RA_OF_ASC_NODE>141.2590</RA_OF_ASC_NODE><ARG_OF_PERICENTER>261.6672</ARG_OF_PERICENTER><MEAN_ANOMALY>98.3004</MEAN_ANOMALY></meanElements><tleParameters><EPHEMERIS_TYPE>0</EPHEMERIS_TYPE><CLASSIFICATION_TYPE>U</CLASSIFICATION_TYPE><NORAD_CAT_ID>64505</NORAD_CAT_ID><ELEMENT_SET_NO>999</ELEMENT_SET_NO><REV_AT_EPOCH>732</REV_AT_EPOCH><BSTAR>.7356E-3</BSTAR><MEAN_MOTION_DOT>.1383E-3</MEAN_MOTION_DOT><MEAN_MOTION_DDOT>0</MEAN_MOTION_DDOT></tleParameters></data></segment></body></omm>
<omm id="CCSDS_OMM_VERS" version="2.0">
<header><CREATION_DATE/><ORIGINATOR/></header><body><segment><metadata><OBJECT_NAME>KUIPER-00046</OBJECT_NAME><OBJECT_ID>2025-134G</OBJECT_ID><CENTER_NAME>EARTH</CENTER_NAME><REF_FRAME>TEME</REF_FRAME><TIME_SYSTEM>UTC</TIME_SYSTEM><MEAN_ELEMENT_THEORY>SGP4</MEAN_ELEMENT_THEORY></metadata><data><meanElements><EPOCH>2025-08-03T06:00:02.000160</EPOCH><MEAN_MOTION>15.21281967</MEAN_MOTION><ECCENTRICITY>.0008709</ECCENTRICITY><INCLINATION>51.8726</INCLINATION><RA_OF_ASC_NODE>135.3090</RA_OF_ASC_NODE><ARG_OF_PERICENTER>274.7453</ARG_OF_PERICENTER><MEAN_ANOMALY>230.8047</MEAN_ANOMALY></meanElements><tleParameters><EPHEMERIS_TYPE>0</EPHEMERIS_TYPE><CLASSIFICATION_TYPE>U</CLASSIFICATION_TYPE><NORAD_CAT_ID>64506</NORAD_CAT_ID><ELEMENT_SET_NO>999</ELEMENT_SET_NO><REV_AT_EPOCH>703</REV_AT_EPOCH><BSTAR>-.3635E-1</BSTAR><MEAN_MOTION_DOT>-.766077E-2</MEAN_MOTION_DOT><MEAN_MOTION_DDOT>0</MEAN_MOTION_DDOT></tleParameters></data></segment></body></omm>
<omm id="CCSDS_OMM_VERS" version="2.0">
<header><CREATION_DATE/><ORIGINATOR/></header><body><segment><metadata><OBJECT_NAME>KUIPER-00047</OBJECT_NAME><OBJECT_ID>2025-134H</OBJECT_ID><CENTER_NAME>EARTH</CENTER_NAME><REF_FRAME>TEME</REF_FRAME><TIME_SYSTEM>UTC</TIME_SYSTEM><MEAN_ELEMENT_THEORY>SGP4</MEAN_ELEMENT_THEORY></metadata><data><meanElements><EPOCH>2025-08-03T00:53:22.915392</EPOCH><MEAN_MOTION>15.34439170</MEAN_MOTION><ECCENTRICITY>.0009848</ECCENTRICITY><INCLINATION>51.8629</INCLINATION><RA_OF_ASC_NODE>135.6696</RA_OF_ASC_NODE><ARG_OF_PERICENTER>272.6575</ARG_OF_PERICENTER><MEAN_ANOMALY>87.3283</MEAN_ANOMALY></meanElements><tleParameters><EPHEMERIS_TYPE>0</EPHEMERIS_TYPE><CLASSIFICATION_TYPE>U</CLASSIFICATION_TYPE><NORAD_CAT_ID>64507</NORAD_CAT_ID><ELEMENT_SET_NO>999</ELEMENT_SET_NO><REV_AT_EPOCH>701</REV_AT_EPOCH><BSTAR>.34741E-3</BSTAR><MEAN_MOTION_DOT>.11416E-3</MEAN_MOTION_DOT><MEAN_MOTION_DDOT>0</MEAN_MOTION_DDOT></tleParameters></data></segment></body></omm>
<omm id="CCSDS_OMM_VERS" version="2.0">
<header><CREATION_DATE/><ORIGINATOR/></header><body><segment><metadata><OBJECT_NAME>KUIPER-00048</OBJECT_NAME><OBJECT_ID>2025-134J</OBJECT_ID><CENTER_NAME>EARTH</CENTER_NAME><REF_FRAME>TEME</REF_FRAME><TIME_SYSTEM>UTC</TIME_SYSTEM><MEAN_ELEMENT_THEORY>SGP4</MEAN_ELEMENT_THEORY></metadata><data><meanElements><EPOCH>2025-08-03T04:19:18.961248</EPOCH><MEAN_MOTION>15.36476630</MEAN_MOTION><ECCENTRICITY>.0002686</ECCENTRICITY><INCLINATION>51.8775</INCLINATION><RA_OF_ASC_NODE>134.4350</RA_OF_ASC_NODE><ARG_OF_PERICENTER>249.1669</ARG_OF_PERICENTER><MEAN_ANOMALY>110.9030</MEAN_ANOMALY></meanElements><tleParameters><EPHEMERIS_TYPE>0</EPHEMERIS_TYPE><CLASSIFICATION_TYPE>U</CLASSIFICATION_TYPE><NORAD_CAT_ID>64508</NORAD_CAT_ID><ELEMENT_SET_NO>999</ELEMENT_SET_NO><REV_AT_EPOCH>704</REV_AT_EPOCH><BSTAR>.8833E-3</BSTAR><MEAN_MOTION_DOT>.31674E-3</MEAN_MOTION_DOT><MEAN_MOTION_DDOT>0</MEAN_MOTION_DDOT></tleParameters></data></segment></body></omm>
<omm id="CCSDS_OMM_VERS" version="2.0">
<header><CREATION_DATE/><ORIGINATOR/></header><body><segment><metadata><OBJECT_NAME>KUIPER-00049</OBJECT_NAME><OBJECT_ID>2025-134K</OBJECT_ID><CENTER_NAME>EARTH</CENTER_NAME><REF_FRAME>TEME</REF_FRAME><TIME_SYSTEM>UTC</TIME_SYSTEM><MEAN_ELEMENT_THEORY>SGP4</MEAN_ELEMENT_THEORY></metadata><data><meanElements><EPOCH>2025-08-02T19:31:48.654048</EPOCH><MEAN_MOTION>15.35626002</MEAN_MOTION><ECCENTRICITY>.0006618</ECCENTRICITY><INCLINATION>51.8703</INCLINATION><RA_OF_ASC_NODE>136.4665</RA_OF_ASC_NODE><ARG_OF_PERICENTER>251.3301</ARG_OF_PERICENTER><MEAN_ANOMALY>108.6966</MEAN_ANOMALY></meanElements><tleParameters><EPHEMERIS_TYPE>0</EPHEMERIS_TYPE><CLASSIFICATION_TYPE>U</CLASSIFICATION_TYPE><NORAD_CAT_ID>64509</NORAD_CAT_ID><ELEMENT_SET_NO>999</ELEMENT_SET_NO><REV_AT_EPOCH>742</REV_AT_EPOCH><BSTAR>.79055E-3</BSTAR><MEAN_MOTION_DOT>.27536E-3</MEAN_MOTION_DOT><MEAN_MOTION_DDOT>0</MEAN_MOTION_DDOT></tleParameters></data></segment></body></omm>
<omm id="CCSDS_OMM_VERS" version="2.0">
<header><CREATION_DATE/><ORIGINATOR/></header><body><segment><metadata><OBJECT_NAME>KUIPER-00050</OBJECT_NAME><OBJECT_ID>2025-134L</OBJECT_ID><CENTER_NAME>EARTH</CENTER_NAME><REF_FRAME>TEME</REF_FRAME><TIME_SYSTEM>UTC</TIME_SYSTEM><MEAN_ELEMENT_THEORY>SGP4</MEAN_ELEMENT_THEORY></metadata><data><meanElements><EPOCH>2025-08-03T01:54:34.647552</EPOCH><MEAN_MOTION>15.35168717</MEAN_MOTION><ECCENTRICITY>.0006952</ECCENTRICITY><INCLINATION>51.8714</INCLINATION><RA_OF_ASC_NODE>135.2443</RA_OF_ASC_NODE><ARG_OF_PERICENTER>246.2113</ARG_OF_PERICENTER><MEAN_ANOMALY>113.8144</MEAN_ANOMALY></meanElements><tleParameters><EPHEMERIS_TYPE>0</EPHEMERIS_TYPE><CLASSIFICATION_TYPE>U</CLASSIFICATION_TYPE><NORAD_CAT_ID>64510</NORAD_CAT_ID><ELEMENT_SET_NO>999</ELEMENT_SET_NO><REV_AT_EPOCH>702</REV_AT_EPOCH><BSTAR>.43269E-3</BSTAR><MEAN_MOTION_DOT>.14652E-3</MEAN_MOTION_DOT><MEAN_MOTION_DDOT>0</MEAN_MOTION_DDOT></tleParameters></data></segment></body></omm>
<omm id="CCSDS_OMM_VERS" version="2.0">
<header><CREATION_DATE/><ORIGINATOR/></header><body><segment><metadata><OBJECT_NAME>KUIPER-00051</OBJECT_NAME><OBJECT_ID>2025-134M</OBJECT_ID><CENTER_NAME>EARTH</CENTER_NAME><REF_FRAME>TEME</REF_FRAME><TIME_SYSTEM>UTC</TIME_SYSTEM><MEAN_ELEMENT_THEORY>SGP4</MEAN_ELEMENT_THEORY></metadata><data><meanElements><EPOCH>2025-08-03T00:03:07.855200</EPOCH><MEAN_MOTION>15.35757263</MEAN_MOTION><ECCENTRICITY>.0005078</ECCENTRICITY><INCLINATION>51.8726</INCLINATION><RA_OF_ASC_NODE>135.4807</RA_OF_ASC_NODE><ARG_OF_PERICENTER>241.1017</ARG_OF_PERICENTER><MEAN_ANOMALY>118.9459</MEAN_ANOMALY></meanElements><tleParameters><EPHEMERIS_TYPE>0</EPHEMERIS_TYPE><CLASSIFICATION_TYPE>U</CLASSIFICATION_TYPE><NORAD_CAT_ID>64511</NORAD_CAT_ID><ELEMENT_SET_NO>999</ELEMENT_SET_NO><REV_AT_EPOCH>739</REV_AT_EPOCH><BSTAR>.75027E-3</BSTAR><MEAN_MOTION_DOT>.26213E-3</MEAN_MOTION_DOT><MEAN_MOTION_DDOT>0</MEAN_MOTION_DDOT></tleParameters></data></segment></body></omm>
<omm id="CCSDS_OMM_VERS" version="2.0">
<header><CREATION_DATE/><ORIGINATOR/></header><body><segment><metadata><OBJECT_NAME>KUIPER-00052</OBJECT_NAME><OBJECT_ID>2025-134N</OBJECT_ID><CENTER_NAME>EARTH</CENTER_NAME><REF_FRAME>TEME</REF_FRAME><TIME_SYSTEM>UTC</TIME_SYSTEM><MEAN_ELEMENT_THEORY>SGP4</MEAN_ELEMENT_THEORY></metadata><data><meanElements><EPOCH>2025-08-03T06:00:02.000160</EPOCH><MEAN_MOTION>15.48664141</MEAN_MOTION><ECCENTRICITY>.0003683</ECCENTRICITY><INCLINATION>51.8745</INCLINATION><RA_OF_ASC_NODE>133.5087</RA_OF_ASC_NODE><ARG_OF_PERICENTER>280.8830</ARG_OF_PERICENTER><MEAN_ANOMALY>35.7980</MEAN_ANOMALY></meanElements><tleParameters><EPHEMERIS_TYPE>0</EPHEMERIS_TYPE><CLASSIFICATION_TYPE>U</CLASSIFICATION_TYPE><NORAD_CAT_ID>64512</NORAD_CAT_ID><ELEMENT_SET_NO>999</ELEMENT_SET_NO><REV_AT_EPOCH>705</REV_AT_EPOCH><BSTAR>.23275E-1</BSTAR><MEAN_MOTION_DOT>.1390925E-1</MEAN_MOTION_DOT><MEAN_MOTION_DDOT>0</MEAN_MOTION_DDOT></tleParameters></data></segment></body></omm>

</ndm>
