KUIPER-00044            
1 64505U 25134F   25214.19518329  .00013830  00000+0  73560-3 0  9995
2 64505  51.8735 141.2590 0011482 261.6672  98.3004 15.15467785  7324
KUIPER-00046            
1 64506U 25134G   25215.25002315 -.00766077  00000+0 -36350-1 0  9991
2 64506  51.8726 135.3090 0008709 274.7453 230.8047 15.21281967  7035
KUIPER-00047            
1 64507U 25134H   25215.03707078  .00011416  00000+0  34741-3 0  9998
2 64507  51.8629 135.6696 0009848 272.6575  87.3283 15.34439170  7010
KUIPER-00048            
1 64508U 25134J   25215.18008057  .00031674  00000+0  88330-3 0  9997
2 64508  51.8775 134.4350 0002686 249.1669 110.9030 15.36476630  7043
KUIPER-00049            
1 64509U 25134K   25214.81375757  .00027536  00000+0  79055-3 0  9997
2 64509  51.8703 136.4665 0006618 251.3301 108.6966 15.35626002  7426
KUIPER-00050            
1 64510U 25134L   25215.07956768  .00014652  00000+0  43269-3 0  9998
2 64510  51.8714 135.2443 0006952 246.2113 113.8144 15.35168717  7022
KUIPER-00051            
1 64511U 25134M   25215.00217425  .00026213  00000+0  75027-3 0  9995
2 64511  51.8726 135.4807 0005078 241.1017 118.9459 15.35757263  7392
KUIPER-00052            
1 64512U 25134N   25215.25002315  .01390925  00000+0  23275-1 0  9994
2 64512  51.8745 133.5087 0003683 280.8830  35.7980 15.48664141  7050
